CELESTIS-02             
1 25160U 98007D   09122.48898997 -.00000083  00000-0  20722-4 0   387
2 25160 107.9861 351.5163 0061387  44.2893 316.3127 14.20837298581952
CELESTIS-03             
1 26034U 99070C   09122.48199784  .00000561  00000-0  82057-4 0  5246
2 26034  98.3727 132.1639 0019717 133.6254 226.6578 14.79776354503565
AMC-14                  
1 32708U 08011A   09121.80144933  .00000168  00000-0  10000-3 0  4034
2 32708  13.2357 119.1466 0054207 355.3248  68.4083  1.00268504  5447
